start=new Date('2023-06-05T00:00:00.000Z').valueOf();
sats=[{"GP_ID":"233218048","TLE_LINE2":"2 51731  53.2155 168.3106 0001133  86.0130 274.0992 15.08841203 71251","RA_OF_ASC_NODE":"168.3106","REF_FRAME":"TEME","DECAY_DATE":null,"INCLINATION":"53.2155","OBJECT_TYPE":"PAYLOAD","COUNTRY_CODE":"US","ELEMENT_SET_NO":"999","PERIAPSIS":"538.958","OBJECT_NAME":"STARLINK-3514","FILE":"3925173","REV_AT_EPOCH":"7125","NORAD_CAT_ID":"51731","PERIOD":"95.437","CENTER_NAME":"EARTH","SITE":"AFETR","OBJECT_ID":"2022-016T","MEAN_ELEMENT_THEORY":"SGP4","CLASSIFICATION_TYPE":"U","MEAN_ANOMALY":"274.0992","ARG_OF_PERICENTER":"86.0130","SEMIMAJOR_AXIS":"6917.877","EPOCH":"2023-06-04T18:36:30.430944","MEAN_MOTION":"15.08841203","MEAN_MOTION_DDOT":"0.0000000000000","LAUNCH_DATE":"2022-02-21","BSTAR":"0.00005086000000","ECCENTRICITY":"0.00011330","MEAN_MOTION_DOT":"0.00000522","RCS_SIZE":"LARGE","EPHEMERIS_TYPE":"0","APOAPSIS":"540.526","TLE_LINE1":"1 51731U 22016T   23155.77535221  .00000522  00000-0  50860-4 0  9998","TIME_SYSTEM":"UTC"},{"PERIAPSIS":"539.045","ELEMENT_SET_NO":"999","OBJECT_TYPE":"PAYLOAD","COUNTRY_CODE":"US","FILE":"3925173","OBJECT_NAME":"STARLINK-3518","TLE_LINE2":"2 51732  53.2155 168.3757 0001019  89.0408 271.0701 15.08838549 72398","GP_ID":"233218298","INCLINATION":"53.2155","DECAY_DATE":null,"REF_FRAME":"TEME","RA_OF_ASC_NODE":"168.3757","SITE":"AFETR","CENTER_NAME":"EARTH","NORAD_CAT_ID":"51732","REV_AT_EPOCH":"7239","PERIOD":"95.438","LAUNCH_DATE":"2022-02-21","MEAN_MOTION_DDOT":"0.0000000000000","ECCENTRICITY":"0.00010190","BSTAR":"0.00004544000000","MEAN_ELEMENT_THEORY":"SGP4","OBJECT_ID":"2022-016U","MEAN_MOTION":"15.08838549","EPOCH":"2023-06-04T18:15:18.920160","SEMIMAJOR_AXIS":"6917.885","ARG_OF_PERICENTER":"89.0408","CLASSIFICATION_TYPE":"U","MEAN_ANOMALY":"271.0701","APOAPSIS":"540.455","TLE_LINE1":"1 51732U 22016U   23155.76063565  .00000435  00000-0  45440-4 0  9996","TIME_SYSTEM":"UTC","EPHEMERIS_TYPE":"0","RCS_SIZE":"LARGE","MEAN_MOTION_DOT":"0.00000435"},{"REV_AT_EPOCH":"7125","NORAD_CAT_ID":"51733","PERIOD":"95.437","CENTER_NAME":"EARTH","SITE":"AFETR","GP_ID":"233219050","TLE_LINE2":"2 51733  53.2157 168.3500 0000843  73.8210 286.2875 15.08842041 71259","DECAY_DATE":null,"RA_OF_ASC_NODE":"168.3500","REF_FRAME":"TEME","INCLINATION":"53.2157","OBJECT_TYPE":"PAYLOAD","COUNTRY_CODE":"US","PERIAPSIS":"539.156","ELEMENT_SET_NO":"999","OBJECT_NAME":"STARLINK-3525","FILE":"3925173","RCS_SIZE":"LARGE","MEAN_MOTION_DOT":"0.00000710","EPHEMERIS_TYPE":"0","APOAPSIS":"540.322","TIME_SYSTEM":"UTC","TLE_LINE1":"1 51733U 22016V   23155.76894852  .00000710  00000-0  62682-4 0  9991","OBJECT_ID":"2022-016V","MEAN_ELEMENT_THEORY":"SGP4","ARG_OF_PERICENTER":"73.8210","CLASSIFICATION_TYPE":"U","MEAN_ANOMALY":"286.2875","MEAN_MOTION":"15.08842041","EPOCH":"2023-06-04T18:27:17.152128","SEMIMAJOR_AXIS":"6917.874","LAUNCH_DATE":"2022-02-21","MEAN_MOTION_DDOT":"0.0000000000000","ECCENTRICITY":"0.00008430","BSTAR":"0.00006268200000"},{"LAUNCH_DATE":"2022-02-21","MEAN_MOTION_DDOT":"0.0000000000000","ECCENTRICITY":"0.00011210","BSTAR":"0.00005222900000","OBJECT_ID":"2022-016W","MEAN_ELEMENT_THEORY":"SGP4","ARG_OF_PERICENTER":"82.6332","CLASSIFICATION_TYPE":"U","MEAN_ANOMALY":"277.4788","MEAN_MOTION":"15.08835624","EPOCH":"2023-06-04T17:59:25.184256","SEMIMAJOR_AXIS":"6917.894","APOAPSIS":"540.534","TLE_LINE1":"1 51734U 22016W   23155.74959704  .00000543  00000-0  52229-4 0  9998","TIME_SYSTEM":"UTC","RCS_SIZE":"LARGE","MEAN_MOTION_DOT":"0.00000543","EPHEMERIS_TYPE":"0","COUNTRY_CODE":"US","OBJECT_TYPE":"PAYLOAD","PERIAPSIS":"538.983","ELEMENT_SET_NO":"999","OBJECT_NAME":"STARLINK-3450","FILE":"3925173","GP_ID":"233218800","TLE_LINE2":"2 51734  53.2155 168.4237 0001121  82.6332 277.4788 15.08835624 71242","DECAY_DATE":null,"RA_OF_ASC_NODE":"168.4237","REF_FRAME":"TEME","INCLINATION":"53.2155","CENTER_NAME":"EARTH","SITE":"AFETR","REV_AT_EPOCH":"7124","NORAD_CAT_ID":"51734","PERIOD":"95.438"},{"BSTAR":"0.00005306200000","ECCENTRICITY":"0.00010190","MEAN_MOTION_DDOT":"0.0000000000000","LAUNCH_DATE":"2022-02-21","EPOCH":"2023-06-04T18:10:01.058016","SEMIMAJOR_AXIS":"6917.886","MEAN_MOTION":"15.08838298","CLASSIFICATION_TYPE":"U","MEAN_ANOMALY":"272.4346","ARG_OF_PERICENTER":"87.6763","MEAN_ELEMENT_THEORY":"SGP4","OBJECT_ID":"2022-016X","TIME_SYSTEM":"UTC","TLE_LINE1":"1 51735U 22016X   23155.75695669  .00000557  00000-0  53062-4 0  9998","APOAPSIS":"540.456","EPHEMERIS_TYPE":"0","MEAN_MOTION_DOT":"0.00000557","RCS_SIZE":"LARGE","FILE":"3925173","OBJECT_NAME":"STARLINK-3517","ELEMENT_SET_NO":"999","PERIAPSIS":"539.046","OBJECT_TYPE":"PAYLOAD","COUNTRY_CODE":"US","INCLINATION":"53.2156","RA_OF_ASC_NODE":"168.3929","REF_FRAME":"TEME","DECAY_DATE":null,"TLE_LINE2":"2 51735  53.2156 168.3929 0001019  87.6763 272.4346 15.08838298 71256","GP_ID":"233217548","SITE":"AFETR","CENTER_NAME":"EARTH","PERIOD":"95.438","NORAD_CAT_ID":"51735","REV_AT_EPOCH":"7125"},{"APOAPSIS":"540.486","TLE_LINE1":"1 51736U 22016Y   23155.74223677  .00000520  00000-0  50735-4 0  9998","TIME_SYSTEM":"UTC","MEAN_MOTION_DOT":"0.00000520","RCS_SIZE":"LARGE","EPHEMERIS_TYPE":"0","MEAN_MOTION_DDOT":"0.0000000000000","LAUNCH_DATE":"2022-02-21","BSTAR":"0.00005073500000","ECCENTRICITY":"0.00010550","OBJECT_ID":"2022-016Y","MEAN_ELEMENT_THEORY":"SGP4","CLASSIFICATION_TYPE":"U","MEAN_ANOMALY":"272.5217","ARG_OF_PERICENTER":"87.5896","SEMIMAJOR_AXIS":"6917.891","EPOCH":"2023-06-04T17:48:49.256928","MEAN_MOTION":"15.08836629","CENTER_NAME":"EARTH","SITE":"AFETR","REV_AT_EPOCH":"7124","NORAD_CAT_ID":"51736","PERIOD":"95.438","COUNTRY_CODE":"US","OBJECT_TYPE":"PAYLOAD","ELEMENT_SET_NO":"999","PERIAPSIS":"539.026","OBJECT_NAME":"STARLINK-3447","FILE":"3925173","GP_ID":"233217798","TLE_LINE2":"2 51736  53.2151 168.4607 0001055  87.5896 272.5217 15.08836629 71245","RA_OF_ASC_NODE":"168.4607","REF_FRAME":"TEME","DECAY_DATE":null,"INCLINATION":"53.2151"},{"GP_ID":"233218550","TLE_LINE2":"2 51737  53.2155 168.4082 0001100  81.5312 278.5805 15.08839029 71241","RA_OF_ASC_NODE":"168.4082","REF_FRAME":"TEME","DECAY_DATE":null,"INCLINATION":"53.2155","OBJECT_TYPE":"PAYLOAD","COUNTRY_CODE":"US","ELEMENT_SET_NO":"999","PERIAPSIS":"538.987","OBJECT_NAME":"STARLINK-3509","FILE":"3925173","REV_AT_EPOCH":"7124","NORAD_CAT_ID":"51737","PERIOD":"95.438","CENTER_NAME":"EARTH","SITE":"AFETR","OBJECT_ID":"2022-016Z","MEAN_ELEMENT_THEORY":"SGP4","CLASSIFICATION_TYPE":"U","MEAN_ANOMALY":"278.5805","ARG_OF_PERICENTER":"81.5312","EPOCH":"2023-06-04T18:04:42.878784","SEMIMAJOR_AXIS":"6917.883","MEAN_MOTION":"15.08839029","MEAN_MOTION_DDOT":"0.0000000000000","LAUNCH_DATE":"2022-02-21","BSTAR":"0.00005934800000","ECCENTRICITY":"0.00011000","MEAN_MOTION_DOT":"0.00000657","RCS_SIZE":"LARGE","EPHEMERIS_TYPE":"0","APOAPSIS":"540.509","TLE_LINE1":"1 51737U 22016Z   23155.75327406  .00000657  00000-0  59348-4 0  9995","TIME_SYSTEM":"UTC"},{"MEAN_MOTION_DOT":"0.00000050","RCS_SIZE":"LARGE","EPHEMERIS_TYPE":"0","APOAPSIS":"540.436","TLE_LINE1":"1 51738U 22016AA  23155.46991376  .00000050  00000-0  21209-4 0  9999","TIME_SYSTEM":"UTC","OBJECT_ID":"2022-016AA","MEAN_ELEMENT_THEORY":"SGP4","CLASSIFICATION_TYPE":"U","MEAN_ANOMALY":"275.9517","ARG_OF_PERICENTER":"84.1587","EPOCH":"2023-06-04T11:16:40.548864","SEMIMAJOR_AXIS":"6917.890","MEAN_MOTION":"15.08836958","MEAN_MOTION_DDOT":"0.0000000000000","LAUNCH_DATE":"2022-02-21","ECCENTRICITY":"0.00009850","BSTAR":"0.00002120900000","REV_AT_EPOCH":"7231","NORAD_CAT_ID":"51738","PERIOD":"95.438","CENTER_NAME":"EARTH","SITE":"AFETR","GP_ID":"233193967","TLE_LINE2":"2 51738  53.2153 169.6803 0000985  84.1587 275.9517 15.08836958 72315","REF_FRAME":"TEME","RA_OF_ASC_NODE":"169.6803","DECAY_DATE":null,"INCLINATION":"53.2153","OBJECT_TYPE":"PAYLOAD","COUNTRY_CODE":"US","ELEMENT_SET_NO":"999","PERIAPSIS":"539.073","OBJECT_NAME":"STARLINK-3515","FILE":"3925137"},{"ECCENTRICITY":"0.00010210","BSTAR":"-0.00000541560000","MEAN_MOTION_DDOT":"0.0000000000000","LAUNCH_DATE":"2022-02-21","EPOCH":"2023-06-04T17:54:07.806816","SEMIMAJOR_AXIS":"6917.914","MEAN_MOTION":"15.08829067","CLASSIFICATION_TYPE":"U","MEAN_ANOMALY":"280.0518","ARG_OF_PERICENTER":"80.0589","MEAN_ELEMENT_THEORY":"SGP4","OBJECT_ID":"2022-016AB","TLE_LINE1":"1 51739U 22016AB  23155.74592369 -.00000374  00000-0 -54156-5 0  9999","TIME_SYSTEM":"UTC","APOAPSIS":"540.485","EPHEMERIS_TYPE":"0","MEAN_MOTION_DOT":"-0.00000374","RCS_SIZE":"LARGE","FILE":"3925173","OBJECT_NAME":"STARLINK-3516","ELEMENT_SET_NO":"999","PERIAPSIS":"539.072","COUNTRY_CODE":"US","OBJECT_TYPE":"PAYLOAD","INCLINATION":"53.2155","REF_FRAME":"TEME","RA_OF_ASC_NODE":"168.4399","DECAY_DATE":null,"TLE_LINE2":"2 51739  53.2155 168.4399 0001021  80.0589 280.0518 15.08829067 71246","GP_ID":"233218049","SITE":"AFETR","CENTER_NAME":"EARTH","PERIOD":"95.438","NORAD_CAT_ID":"51739","REV_AT_EPOCH":"7124"},{"CENTER_NAME":"EARTH","SITE":"AFETR","REV_AT_EPOCH":"7120","NORAD_CAT_ID":"51740","PERIOD":"95.438","OBJECT_TYPE":"PAYLOAD","COUNTRY_CODE":"US","ELEMENT_SET_NO":"999","PERIAPSIS":"538.989","OBJECT_NAME":"STARLINK-3500","FILE":"3924842","GP_ID":"233182957","TLE_LINE2":"2 51740  53.2158 169.7147 0001111  86.8455 273.2664 15.08835974 71208","REF_FRAME":"TEME","RA_OF_ASC_NODE":"169.7147","DECAY_DATE":null,"INCLINATION":"53.2158","APOAPSIS":"540.526","TIME_SYSTEM":"UTC","TLE_LINE1":"1 51740U 22016AC  23155.46255503 -.00000299  00000-0 -69531-6 0  9996","MEAN_MOTION_DOT":"-0.00000299","RCS_SIZE":"LARGE","EPHEMERIS_TYPE":"0","MEAN_MOTION_DDOT":"0.0000000000000","LAUNCH_DATE":"2022-02-21","ECCENTRICITY":"0.00011110","BSTAR":"-0.00000069531000","OBJECT_ID":"2022-016AC","MEAN_ELEMENT_THEORY":"SGP4","CLASSIFICATION_TYPE":"U","MEAN_ANOMALY":"273.2664","ARG_OF_PERICENTER":"86.8455","EPOCH":"2023-06-04T11:06:04.754592","SEMIMAJOR_AXIS":"6917.893","MEAN_MOTION":"15.08835974"}];
